     2.10           Navigation data                         RINEX VERSION / TYPE
sbf2rin                                 (05-SEP-15 08:03)   PGM / RUN BY / DATE 
    1.0245E-08  2.2352E-08 -5.9605E-08 -1.1921E-07          ION ALPHA           
    9.4208E+04  9.8304E+04 -1.3107E+05 -5.2429E+05          ION BETA            
    4.656612873077E-09 1.243449787580E-14   147456     1861 DELTA-UTC: A0,A1,T,W
    17                                                      LEAP SECONDS        
                                                            END OF HEADER       
 1 15  9  5  6  0  0.0-6.752088665962E-08 6.821210263297E-13 0.000000000000E+00
    3.400000000000E+01-7.687500000000E+00 4.521616914922E-09 1.919302634110E+00
   -4.246830940247E-07 4.664780106395E-03 7.705762982368E-06 5.153661462784E+03
    5.400000000000E+05-1.024454832077E-07 2.599944272332E+00 4.470348358154E-08
    9.629517684978E-01 2.313125000000E+02 4.613614255552E-01-8.105337619846E-09
    2.585821995580E-10 1.000000000000E+00 1.860000000000E+03 0.000000000000E+00
    2.000000000000E+00 0.000000000000E+00 5.122274160385E-09 3.400000000000E+01
    5.328180000000E+05 4.000000000000E+00                                      
 2 15  9  5  8  0  0.0 5.874917842448E-04 1.705302565824E-12 0.000000000000E+00
    2.400000000000E+01-4.281250000000E+00 4.879846122321E-09-2.761369016892E+00
   -1.695007085800E-07 1.475082954857E-02 7.392838597298E-06 5.153619840622E+03
    5.472000000000E+05 8.009374141693E-08 2.560132950762E+00-1.341104507446E-07
    9.415959572511E-01 2.241875000000E+02-2.235099367374E+00-8.022119867778E-09
    3.518003681831E-10 1.000000000000E+00 1.860000000000E+03 0.000000000000E+00
    2.000000000000E+00 0.000000000000E+00-2.048909664154E-08 2.400000000000E+01
    5.400180000000E+05 4.000000000000E+00                                      
 3 15  9  5  8  0  0.0 2.006394788623E-05 1.364242052659E-12 0.000000000000E+00
    4.300000000000E+01-1.056250000000E+01 4.665908639538E-09-1.345693246668E+00
   -6.277114152908E-07 6.337357917801E-04 7.515773177147E-06 5.153607358932E+03
    5.472000000000E+05 2.235174179077E-08-2.642856376045E+00-9.313225746155E-09
    9.595318390726E-01 2.304687500000E+02-2.582745914809E+00-8.119266771480E-09
   -8.357490980188E-11 1.000000000000E+00 1.860000000000E+03 0.000000000000E+00
    2.000000000000E+00 0.000000000000E+00 1.862645149231E-09 4.300000000000E+01
    5.400180000000E+05 4.000000000000E+00                                      
 4 15  9  5  6  0  0.0-1.724949106574E-05-3.979039320257E-12 0.000000000000E+00
    9.300000000000E+01-1.143750000000E+01 4.999851121011E-09 1.709987576555E+00
   -7.208436727524E-07 1.182140037417E-02 7.569789886475E-06 5.153656429291E+03
    5.400000000000E+05-2.440065145493E-07 2.575336323975E+00-2.142041921616E-07
    9.406844027555E-01 2.237812500000E+02 1.093554638757E+00-8.380706232911E-09
    3.010839699273E-10 1.000000000000E+00 1.860000000000E+03 0.000000000000E+00
    2.000000000000E+00 0.000000000000E+00-6.519258022308E-09 9.300000000000E+01
    5.328180000000E+05 4.000000000000E+00                                      
 6 15  9  5  8  0  0.0 5.195522680879E-05 7.503331289627E-12 0.000000000000E+00
    7.600000000000E+01-3.062500000000E+00 4.494115769389E-09-1.041106749315E+00
   -7.450580596924E-09 1.243905862793E-04 7.815659046173E-06 5.153533895493E+03
    5.472000000000E+05-6.891787052155E-08 2.591417017938E+00-4.470348358154E-08
    9.628180870437E-01 2.321562500000E+02 2.838242605820E+00-8.014976713094E-09
    2.289381076197E-10 1.000000000000E+00 1.860000000000E+03 0.000000000000E+00
    2.000000000000E+00 0.000000000000E+00 4.190951585770E-09 7.600000000000E+01
    5.400180000000E+05 4.000000000000E+00                                      
12 15  9  5  8  0  0.0 3.252676688135E-04 3.410605131648E-12 0.000000000000E+00
    5.000000000000E+01-4.500000000000E+01 4.015167247832E-09 1.821969445346E+00
   -2.415850758553E-06 5.513509502634E-03 5.841255187988E-06 5.153616579056E+03
    5.472000000000E+05-2.104789018631E-07 5.467188436172E-01 8.009374141693E-08
    9.901940504939E-01 2.824375000000E+02 6.466343051543E-01-7.976046520067E-09
   -2.175090601254E-10 1.000000000000E+00 1.860000000000E+03 0.000000000000E+00
    2.000000000000E+00 0.000000000000E+00-1.257285475731E-08 5.000000000000E+01
    5.400180000000E+05 4.000000000000E+00                                      
13 15  9  5  6  0  0.0-1.466558314860E-04-2.955857780762E-12 0.000000000000E+00
    4.900000000000E+01 6.959375000000E+01 4.219818629527E-09 2.097083509386E+00
    3.468245267868E-06 4.741876968183E-03 9.855255484581E-06 5.153687005997E+03
    5.400000000000E+05 6.705522537231E-08-1.483893144140E+00-5.587935447693E-09
    9.730212311313E-01 1.963750000000E+02 2.086604050794E+00-7.774609557980E-09
   -6.464554988949E-11 1.000000000000E+00 1.860000000000E+03 0.000000000000E+00
    2.000000000000E+00 0.000000000000E+00-1.117587089539E-08 4.900000000000E+01
    5.328180000000E+05 4.000000000000E+00                                      
14 15  9  5  8  0  0.0 3.687757998705E-05-2.614797267597E-12 0.000000000000E+00
    8.100000000000E+01 6.343750000000E+01 4.429113061766E-09-1.194651372996E+00
    3.503635525703E-06 8.468115702271E-03 1.010112464428E-05 5.153651428223E+03
    5.472000000000E+05 3.352761268616E-08-1.519248822469E+00 1.750886440277E-07
    9.655165125868E-01 1.875625000000E+02-1.961470824962E+00-7.974617889130E-09
   -3.678724662220E-11 1.000000000000E+00 1.860000000000E+03 0.000000000000E+00
    2.000000000000E+00 0.000000000000E+00-9.313225746155E-09 8.100000000000E+01
    5.400180000000E+05 4.000000000000E+00                                      
15 15  9  5  6  0  0.0-2.698902972043E-04-2.046363078989E-12 0.000000000000E+00
    4.500000000000E+01 6.121875000000E+01 5.118784646498E-09-2.922364266259E+00
    3.058463335037E-06 7.372449268587E-03 1.024268567562E-05 5.153713146210E+03
    5.400000000000E+05-8.568167686462E-08-1.646703456449E+00-1.247972249985E-07
    9.322599168933E-01 1.697812500000E+02 4.008587413527E-01-8.167483065596E-09
   -8.750364487804E-11 1.000000000000E+00 1.860000000000E+03 0.000000000000E+00
    2.000000000000E+00 0.000000000000E+00-1.071020960808E-08 4.500000000000E+01
    5.328180000000E+05 4.000000000000E+00                                      
17 15  9  5  8  0  0.0-1.866454258561E-04-1.364242052659E-12 0.000000000000E+00
    6.200000000000E+01-4.384375000000E+01 4.190888853057E-09-1.182083537404E+00
   -2.315267920494E-06 1.033609930892E-02 8.653849363327E-06 5.153567539215E+03
    5.472000000000E+05 1.210719347000E-07 1.590646736821E+00 2.626329660416E-07
    9.732685169518E-01 2.216250000000E+02-2.008943410477E+00-7.973189258193E-09
   -3.607293115380E-11 1.000000000000E+00 1.860000000000E+03 0.000000000000E+00
    2.000000000000E+00 0.000000000000E+00-1.071020960808E-08 6.200000000000E+01
    5.400180000000E+05 4.000000000000E+00                                      
18 15  9  5  6  0  0.0 4.313751123846E-04 3.183231456205E-12 0.000000000000E+00
    6.200000000000E+01-9.125000000000E+00 5.658449982869E-09-6.726316131437E-01
   -2.477318048477E-07 1.637229369953E-02 7.877126336098E-06 5.153623720169E+03
    5.400000000000E+05-9.499490261078E-08-2.666504340003E+00 2.533197402954E-07
    9.253127632421E-01 2.139687500000E+02-1.938852297438E+00-8.804652463402E-09
   -5.714523747137E-11 1.000000000000E+00 1.860000000000E+03 0.000000000000E+00
    2.000000000000E+00 0.000000000000E+00-1.117587089539E-08 6.200000000000E+01
    5.328180000000E+05 4.000000000000E+00                                      
22 15  9  5  6  0  0.0 3.882353194058E-04 3.751665644813E-12 0.000000000000E+00
    6.000000000000E+01-1.121875000000E+01 5.604876322739E-09-1.153821049987E+00
   -3.855675458908E-07 8.032046956941E-03 7.437542080879E-06 5.153678436279E+03
    5.400000000000E+05 9.126961231232E-08-2.665520085794E+00 1.750886440277E-07
    9.231375942376E-01 2.147500000000E+02-2.039733170800E+00-8.590357822884E-09
   -7.571743964957E-11 1.000000000000E+00 1.860000000000E+03 0.000000000000E+00
    2.800000000000E+00 0.000000000000E+00-1.769512891769E-08 6.000000000000E+01
    5.328180000000E+05 4.000000000000E+00                                      
24 15  9  5  8  0  0.0-4.155561327934E-06-5.684341886081E-13 0.000000000000E+00
    2.200000000000E+01 7.012500000000E+01 4.890203696613E-09-3.033025645212E+00
    3.656372427940E-06 3.355413558893E-03 5.312263965607E-06 5.153660037994E+03
    5.472000000000E+05-1.862645149231E-09-5.660650282063E-01-4.656612873077E-08
    9.524214442447E-01 2.744062500000E+02 3.135216235484E-01-8.309989001540E-09
    1.221479450951E-10 1.000000000000E+00 1.860000000000E+03 0.000000000000E+00
    2.000000000000E+00 0.000000000000E+00 2.328306436539E-09 2.200000000000E+01
    5.400180000000E+05 4.000000000000E+00                                      
25 15  9  5  8  0  0.0-3.459351137280E-05-5.002220859751E-12 0.000000000000E+00
    1.800000000000E+01-4.650000000000E+01 4.349466887040E-09 1.168699207733E+00
   -2.345070242882E-06 4.632993019186E-03 5.355104804039E-06 5.153634590149E+03
    5.472000000000E+05-1.490116119385E-08 4.989440675031E-01 1.359730958939E-07
    9.786409665644E-01 2.844375000000E+02 7.510377799210E-01-8.246772082588E-09
   -2.528676758108E-10 1.000000000000E+00 1.860000000000E+03 0.000000000000E+00
    2.000000000000E+00 0.000000000000E+00 5.122274160385E-09 1.800000000000E+01
    5.400180000000E+05 4.000000000000E+00                                      
